{
 "generated_at": "2026-07-09T08:28:01Z",
 "sources": [
  {
   "name": "CelesTrak",
   "url": "https://celestrak.org/NORAD/elements/",
   "license": "frei verfügbar; Attribution. Ursprünglich USSPACECOM/Space-Track."
  },
  {
   "name": "GCAT (J. McDowell, planet4589.org)",
   "url": "https://planet4589.org/space/gcat/",
   "license": "CC-BY 4.0"
  }
 ],
 "satellites": [
  {
   "norad": 40275,
   "name": "YAOGAN-22",
   "intl": "2014-063A",
   "group": "resource",
   "gcat": {
    "class": null,
    "category": null,
    "owner": null,
    "state": null
   },
   "omm": {
    "OBJECT_NAME": "YAOGAN-22",
    "OBJECT_ID": "2014-063A",
    "EPOCH": "2026-07-08T22:28:15.204576",
    "MEAN_MOTION": 13.15531434,
    "ECCENTRICITY": 0.00067757,
    "INCLINATION": 100.7753,
    "RA_OF_ASC_NODE": 341.5732,
    "ARG_OF_PERICENTER": 138.1586,
    "MEAN_ANOMALY": 222.0044,
    "EPHEMERIS_TYPE": 0,
    "CLASSIFICATION_TYPE": "U",
    "NORAD_CAT_ID": 40275,
    "ELEMENT_SET_NO": 999,
    "REV_AT_EPOCH": 56267,
    "BSTAR": 0.000046041652,
    "MEAN_MOTION_DOT": -2.9e-7,
    "MEAN_MOTION_DDOT": 0
   }
  },
  {
   "norad": 40310,
   "name": "YAOGAN-24",
   "intl": "2014-072A",
   "group": "resource",
   "gcat": {
    "class": "D",
    "category": "IMG",
    "owner": "ZZB",
    "state": "CN"
   },
   "omm": {
    "OBJECT_NAME": "YAOGAN-24",
    "OBJECT_ID": "2014-072A",
    "EPOCH": "2026-07-08T23:26:15.349920",
    "MEAN_MOTION": 14.7611357,
    "ECCENTRICITY": 0.00140798,
    "INCLINATION": 98.1517,
    "RA_OF_ASC_NODE": 327.5,
    "ARG_OF_PERICENTER": 189.6871,
    "MEAN_ANOMALY": 170.4069,
    "EPHEMERIS_TYPE": 0,
    "CLASSIFICATION_TYPE": "U",
    "NORAD_CAT_ID": 40310,
    "ELEMENT_SET_NO": 999,
    "REV_AT_EPOCH": 62693,
    "BSTAR": 0.000052206155,
    "MEAN_MOTION_DOT": 0.00000308,
    "MEAN_MOTION_DDOT": 0
   }
  },
  {
   "norad": 40362,
   "name": "YAOGAN-26",
   "intl": "2014-088A",
   "group": "resource",
   "gcat": {
    "class": "D",
    "category": "IMG",
    "owner": "ZZB",
    "state": "CN"
   },
   "omm": {
    "OBJECT_NAME": "YAOGAN-26",
    "OBJECT_ID": "2014-088A",
    "EPOCH": "2026-07-08T23:39:12.877344",
    "MEAN_MOTION": 15.48261564,
    "ECCENTRICITY": 0.00027967,
    "INCLINATION": 97.0652,
    "RA_OF_ASC_NODE": 189.6964,
    "ARG_OF_PERICENTER": 11.929,
    "MEAN_ANOMALY": 348.2027,
    "EPHEMERIS_TYPE": 0,
    "CLASSIFICATION_TYPE": "U",
    "NORAD_CAT_ID": 40362,
    "ELEMENT_SET_NO": 999,
    "REV_AT_EPOCH": 64107,
    "BSTAR": 0.00034897052,
    "MEAN_MOTION_DOT": 0.00018335,
    "MEAN_MOTION_DDOT": 0
   }
  },
  {
   "norad": 40878,
   "name": "YAOGAN-27",
   "intl": "2015-040A",
   "group": "resource",
   "gcat": {
    "class": "D",
    "category": "IMG",
    "owner": "ZZB",
    "state": "CN"
   },
   "omm": {
    "OBJECT_NAME": "YAOGAN-27",
    "OBJECT_ID": "2015-040A",
    "EPOCH": "2026-07-08T23:57:56.504160",
    "MEAN_MOTION": 13.16072781,
    "ECCENTRICITY": 0.00083859,
    "INCLINATION": 100.1169,
    "RA_OF_ASC_NODE": 175.4353,
    "ARG_OF_PERICENTER": 158.8584,
    "MEAN_ANOMALY": 201.2878,
    "EPHEMERIS_TYPE": 0,
    "CLASSIFICATION_TYPE": "U",
    "NORAD_CAT_ID": 40878,
    "ELEMENT_SET_NO": 999,
    "REV_AT_EPOCH": 52053,
    "BSTAR": 0.00068603926,
    "MEAN_MOTION_DOT": 0.00000218,
    "MEAN_MOTION_DDOT": 0
   }
  },
  {
   "norad": 41026,
   "name": "YAOGAN-28",
   "intl": "2015-064A",
   "group": "resource",
   "gcat": {
    "class": "D",
    "category": "IMG",
    "owner": "ZZB",
    "state": "CN"
   },
   "omm": {
    "OBJECT_NAME": "YAOGAN-28",
    "OBJECT_ID": "2015-064A",
    "EPOCH": "2026-07-08T22:33:19.729152",
    "MEAN_MOTION": 15.27707375,
    "ECCENTRICITY": 0.00120073,
    "INCLINATION": 97.3097,
    "RA_OF_ASC_NODE": 327.7654,
    "ARG_OF_PERICENTER": 112.254,
    "MEAN_ANOMALY": 247.9975,
    "EPHEMERIS_TYPE": 0,
    "CLASSIFICATION_TYPE": "U",
    "NORAD_CAT_ID": 41026,
    "ELEMENT_SET_NO": 999,
    "REV_AT_EPOCH": 59400,
    "BSTAR": 0.0001840264,
    "MEAN_MOTION_DOT": 0.00004918,
    "MEAN_MOTION_DDOT": 0
   }
  },
  {
   "norad": 41038,
   "name": "YAOGAN-29",
   "intl": "2015-069A",
   "group": "resource",
   "gcat": {
    "class": "D",
    "category": "IMG-R",
    "owner": "ZZB",
    "state": "CN"
   },
   "omm": {
    "OBJECT_NAME": "YAOGAN-29",
    "OBJECT_ID": "2015-069A",
    "EPOCH": "2026-07-08T23:16:37.084224",
    "MEAN_MOTION": 14.83102849,
    "ECCENTRICITY": 0.00011885,
    "INCLINATION": 98.0024,
    "RA_OF_ASC_NODE": 218.6358,
    "ARG_OF_PERICENTER": 21.2022,
    "MEAN_ANOMALY": 338.924,
    "EPHEMERIS_TYPE": 0,
    "CLASSIFICATION_TYPE": "U",
    "NORAD_CAT_ID": 41038,
    "ELEMENT_SET_NO": 999,
    "REV_AT_EPOCH": 57385,
    "BSTAR": 0.000040418288,
    "MEAN_MOTION_DOT": 0.00000275,
    "MEAN_MOTION_DDOT": 0
   }
  },
  {
   "norad": 32289,
   "name": "YAOGAN-3",
   "intl": "2007-055A",
   "group": "resource",
   "gcat": {
    "class": null,
    "category": null,
    "owner": null,
    "state": null
   },
   "omm": {
    "OBJECT_NAME": "YAOGAN-3",
    "OBJECT_ID": "2007-055A",
    "EPOCH": "2026-07-09T00:11:28.016160",
    "MEAN_MOTION": 14.90863376,
    "ECCENTRICITY": 0.0001525,
    "INCLINATION": 97.8148,
    "RA_OF_ASC_NODE": 219.6697,
    "ARG_OF_PERICENTER": 77.1756,
    "MEAN_ANOMALY": 282.9633,
    "EPHEMERIS_TYPE": 0,
    "CLASSIFICATION_TYPE": "U",
    "NORAD_CAT_ID": 32289,
    "ELEMENT_SET_NO": 999,
    "REV_AT_EPOCH": 912,
    "BSTAR": 0.000062186086,
    "MEAN_MOTION_DOT": 0.00000557,
    "MEAN_MOTION_DDOT": 0
   }
  },
  {
   "norad": 33446,
   "name": "YAOGAN-4",
   "intl": "2008-061A",
   "group": "resource",
   "gcat": {
    "class": null,
    "category": null,
    "owner": null,
    "state": null
   },
   "omm": {
    "OBJECT_NAME": "YAOGAN-4",
    "OBJECT_ID": "2008-061A",
    "EPOCH": "2026-07-08T19:44:12.869952",
    "MEAN_MOTION": 14.83243579,
    "ECCENTRICITY": 0.00143979,
    "INCLINATION": 97.9305,
    "RA_OF_ASC_NODE": 123.1735,
    "ARG_OF_PERICENTER": 6.5706,
    "MEAN_ANOMALY": 353.5694,
    "EPHEMERIS_TYPE": 0,
    "CLASSIFICATION_TYPE": "U",
    "NORAD_CAT_ID": 33446,
    "ELEMENT_SET_NO": 999,
    "REV_AT_EPOCH": 94887,
    "BSTAR": 0.000093026723,
    "MEAN_MOTION_DOT": 0.00000707,
    "MEAN_MOTION_DDOT": 0
   }
  },
  {
   "norad": 36110,
   "name": "YAOGAN-7",
   "intl": "2009-069A",
   "group": "resource",
   "gcat": {
    "class": null,
    "category": null,
    "owner": null,
    "state": null
   },
   "omm": {
    "OBJECT_NAME": "YAOGAN-7",
    "OBJECT_ID": "2009-069A",
    "EPOCH": "2026-07-08T14:48:32.591232",
    "MEAN_MOTION": 14.78031471,
    "ECCENTRICITY": 0.00239353,
    "INCLINATION": 98.0044,
    "RA_OF_ASC_NODE": 75.3492,
    "ARG_OF_PERICENTER": 333.3807,
    "MEAN_ANOMALY": 26.6172,
    "EPHEMERIS_TYPE": 0,
    "CLASSIFICATION_TYPE": "U",
    "NORAD_CAT_ID": 36110,
    "ELEMENT_SET_NO": 999,
    "REV_AT_EPOCH": 89279,
    "BSTAR": 0.000054067378,
    "MEAN_MOTION_DOT": 0.00000339,
    "MEAN_MOTION_DDOT": 0
   }
  },
  {
   "norad": 38038,
   "name": "ZIYUAN 1-02C (ZY 1-02C)",
   "intl": "2011-079A",
   "group": "resource",
   "gcat": {
    "class": null,
    "category": null,
    "owner": null,
    "state": null
   },
   "omm": {
    "OBJECT_NAME": "ZIYUAN 1-02C (ZY 1-02C)",
    "OBJECT_ID": "2011-079A",
    "EPOCH": "2026-07-09T00:02:56.237856",
    "MEAN_MOTION": 14.38231872,
    "ECCENTRICITY": 0.00052947,
    "INCLINATION": 98.4059,
    "RA_OF_ASC_NODE": 256.854,
    "ARG_OF_PERICENTER": 236.3776,
    "MEAN_ANOMALY": 246.4428,
    "EPHEMERIS_TYPE": 0,
    "CLASSIFICATION_TYPE": "U",
    "NORAD_CAT_ID": 38038,
    "ELEMENT_SET_NO": 999,
    "REV_AT_EPOCH": 76234,
    "BSTAR": 0.000030983834,
    "MEAN_MOTION_DOT": 5.1e-7,
    "MEAN_MOTION_DDOT": 0
   }
  }
 ]
}
